NORAD_CAT_ID,OBJECT_NAME,OBJECT_TYPE,EPOCH,MEAN_MOTION,ECCENTRICITY,INCLINATION,RA_OF_ASC_NODE,ARG_OF_PERICENTER,MEAN_ANOMALY,BSTAR,MEAN_MOTION_DOT,MEAN_MOTION_DDOT,TLE_LINE0,TLE_LINE1,TLE_LINE2,SEMIMAJOR_AXIS,PERIOD,APOGEE,PERIGEE,DECAYED
49147.0,STARLINK-3071,PAYLOAD,2024-06-08 10:28:51,14.98332363,0.0002628,70.0019,66.244,272.5778,87.508,8.7365e-05,9.5e-06,0.0,0 STARLINK-3071,1 49147U 21082T   24160.43670849  .00000950  00000-0  87365-4 0  9999,2 49147  70.0019  66.2440 0002628 272.5778  87.5080 14.98332363151212,6950.186,96.107,573.877,570.224,0.0
49147.0,STARLINK-3071,PAYLOAD,2024-06-08 16:53:24,14.98331456,0.0002028,70.0021,65.5726,273.1778,86.9149,-4.2656e-06,-1.44e-06,0.0,0 STARLINK-3071,1 49147U 21082T   24160.70375344 -.00000144  00000-0 -42656-5 0  9993,2 49147  70.0021  65.5726 0002028 273.1778  86.9149 14.98331456152420,6950.188,96.107,573.463,570.644,0.0
49147.0,STARLINK-3071,PAYLOAD,2024-06-08 21:41:49,14.98324031,0.0002238,70.0015,65.0665,272.3287,87.7616,-9.0241e-05,-1.169e-05,0.0,0 STARLINK-3071,1 49147U 21082T   24160.90404029 -.00001169  00000-0 -90241-4 0  9998,2 49147  70.0015  65.0665 0002238 272.3287  87.7616 14.98324031151281,6950.211,96.107,573.632,570.521,0.0
49147.0,STARLINK-3071,PAYLOAD,2024-06-09 04:06:21,14.98326469,0.000222,70.0018,64.3929,276.9439,83.1467,-6.6403e-05,-8.85e-06,0.0,0 STARLINK-3071,1 49147U 21082T   24161.17107940 -.00000885  00000-0 -66403-4 0  9997,2 49147  70.0018  64.3929 0002220 276.9439  83.1467 14.98326469152494,6950.204,96.107,573.612,570.526,0.0
49147.0,STARLINK-3071,PAYLOAD,2024-06-09 23:19:57,14.98328915,0.0002474,70.0011,62.3743,270.9163,89.1713,1.0506e-05,3.2e-07,0.0,0 STARLINK-3071,1 49147U 21082T   24161.97219506  .00000032  00000-0  10506-4 0  9992,2 49147  70.0011  62.3743 0002474 270.9163  89.1713 14.98328915151440,6950.196,96.107,573.781,570.342,0.0
49147.0,STARLINK-3071,PAYLOAD,2024-06-10 10:32:53,14.98340656,0.0002901,70.0004,61.194,275.1221,84.9607,-0.00013319,-1.682e-05,0.0,0 STARLINK-3071,1 49147U 21082T   24162.43950931 -.00001682  00000-0 -13319-3 0  9996,2 49147  70.0004  61.1940 0002901 275.1221  84.9607 14.98340656152683,6950.16,96.106,574.041,570.009,0.0
49147.0,STARLINK-3071,PAYLOAD,2024-06-10 20:09:42,14.98324245,0.0002489,70.0007,60.1856,272.0213,88.0661,9.3667e-05,1.025e-05,0.0,0 STARLINK-3071,1 49147U 21082T   24162.84007596  .00001025  00000-0  93667-4 0  9995,2 49147  70.0007  60.1856 0002489 272.0213  88.0661 14.98324245152747,6950.211,96.107,573.806,570.346,0.0
49147.0,STARLINK-3071,PAYLOAD,2024-06-10 23:21:58,14.98327184,0.0002523,70.0006,59.85,271.887,88.2,0.00012056,1.346e-05,0.0,0 STARLINK-3071,1 49147U 21082T   24162.97359357  .00001346  00000-0  12056-3 0  9992,2 49147  70.0006  59.8500 0002523 271.8870  88.2000 14.98327184151598,6950.202,96.107,573.82,570.313,0.0
49147.0,STARLINK-3071,PAYLOAD,2024-06-11 10:34:54,14.98330785,0.0002699,70.0001,58.6709,268.8369,91.2481,5.8412e-05,6.04e-06,0.0,0 STARLINK-3071,1 49147U 21082T   24163.44091197  .00000604  00000-0  58412-4 0  9993,2 49147  70.0001  58.6709 0002699 268.8369  91.2481 14.98330785151660,6950.19,96.107,573.931,570.18,0.0
49147.0,STARLINK-3071,PAYLOAD,2024-06-12 02:36:14,14.98337973,0.0002753,70.0001,56.9863,266.2123,93.8722,4.9798e-05,5.01e-06,0.0,0 STARLINK-3071,1 49147U 21082T   24164.10850671  .00000501  00000-0  49798-4 0  9990,2 49147  70.0001  56.9863 0002753 266.2123  93.8722 14.98337973152936,6950.168,96.106,573.947,570.12,0.0
49147.0,STARLINK-3071,PAYLOAD,2024-06-12 10:36:55,14.98332318,0.0002764,70.0002,56.1438,264.824,95.2603,-3.8046e-05,-5.47e-06,0.0,0 STARLINK-3071,1 49147U 21082T   24164.44231125 -.00000547  00000-0 -38046-4 0  9990,2 49147  70.0002  56.1438 0002764 264.8240  95.2603 14.98332318152980,6950.186,96.107,573.972,570.13,0.0
49147.0,STARLINK-3071,PAYLOAD,2024-06-12 20:13:44,14.98324206,0.0002784,69.9999,55.1346,270.2124,89.8716,-2.8603e-05,-4.34e-06,0.0,0 STARLINK-3071,1 49147U 21082T   24164.84287675 -.00000434  00000-0 -28603-4 0  9998,2 49147  69.9999  55.1346 0002784 270.2124  89.8716 14.98324206153042,6950.211,96.107,574.011,570.141,0.0
49147.0,STARLINK-3071,PAYLOAD,2024-06-12 21:49:52,14.9832349,0.0002805,70.0001,54.9662,270.0771,90.0067,-2.868e-05,-4.35e-06,0.0,0 STARLINK-3071,1 49147U 21082T   24164.90963734 -.00000435  00000-0 -28680-4 0  9998,2 49147  70.0001  54.9662 0002805 270.0771  90.0067 14.98323490151884,6950.213,96.107,574.028,570.128,0.0
49147.0,STARLINK-3071,PAYLOAD,2024-06-13 02:38:16,14.98327094,0.0002738,70.0002,54.4613,268.1266,91.9579,-3.9402e-05,-5.63e-06,0.0,0 STARLINK-3071,1 49147U 21082T   24165.10991575 -.00000563  00000-0 -39402-4 0  9991,2 49147  70.0002  54.4613 0002738 268.1266  91.9579 14.98327094151914,6950.202,96.107,573.97,570.164,0.0
49147.0,STARLINK-3071,PAYLOAD,2024-06-13 20:15:44,14.98333594,0.0002816,70.0002,52.6097,269.4683,90.6154,1.2306e-05,5.4e-07,0.0,0 STARLINK-3071,1 49147U 21082T   24165.84426930  .00000054  00000-0  12306-4 0  9997,2 49147  70.0002  52.6097 0002816 269.4683  90.6154 14.98333594152024,6950.182,96.107,574.004,570.09,0.0
49147.0,STARLINK-3071,PAYLOAD,2024-06-14 09:04:49,14.98332209,0.0002822,70.0006,51.2642,272.6889,87.3947,9.6571e-06,2.2e-07,0.0,0 STARLINK-3071,1 49147U 21082T   24166.37834874  .00000022  00000-0  96571-5 0  9998,2 49147  70.0006  51.2642 0002822 272.6889  87.3947 14.98332209152104,6950.186,96.107,574.012,570.09,0.0
49147.0,STARLINK-3071,PAYLOAD,2024-06-14 21:53:53,14.98327157,0.0002908,70.0004,49.9175,273.2044,86.8782,8.8202e-05,9.59e-06,0.0,0 STARLINK-3071,1 49147U 21082T   24166.91242958  .00000959  00000-0  88202-4 0  9994,2 49147  70.0004  49.9175 0002908 273.2044  86.8782 14.98327157152187,6950.202,96.107,574.088,570.046,0.0
49147.0,STARLINK-3071,PAYLOAD,2024-06-15 12:19:06,14.98330021,0.0002753,70.0007,48.4031,273.4972,86.5872,3.1673e-05,2.85e-06,0.0,0 STARLINK-3071,1 49147U 21082T   24167.51326929  .00000285  00000-0  31673-4 0  9994,2 49147  70.0007  48.4031 0002753 273.4972  86.5872 14.98330021152276,6950.193,96.107,573.971,570.144,0.0
49147.0,STARLINK-3071,PAYLOAD,2024-06-15 21:55:54,14.98329318,0.0002956,70.0007,47.3933,268.6041,91.478,4.5757e-05,4.53e-06,0.0,0 STARLINK-3071,1 49147U 21082T   24167.91382786  .00000453  00000-0  45757-4 0  9996,2 49147  70.0007  47.3933 0002956 268.6041  91.4780 14.98329318152330,6950.195,96.107,574.114,570.006,0.0
49147.0,STARLINK-3071,PAYLOAD,2024-06-16 09:08:51,14.98330995,0.0002814,70.0005,46.215,269.5168,90.5668,-2.221e-05,-3.58e-06,0.0,0 STARLINK-3071,1 49147U 21082T   24168.38114797 -.00000358  00000-0 -22210-4 0  9998,2 49147  70.0005  46.2150 0002814 269.5168  90.5668 14.98330995152406,6950.19,96.107,574.011,570.099,0.0
49147.0,STARLINK-3071,PAYLOAD,2024-06-16 21:57:56,14.98326646,0.0002819,70.0004,44.8684,269.314,90.7696,-5.4287e-05,-7.41e-06,0.0,0 STARLINK-3071,1 49147U 21082T   24168.91523200 -.00000741  00000-0 -54287-4 0  9995,2 49147  70.0004  44.8684 0002819 269.3140  90.7696 14.98326646152483,6950.203,96.107,574.028,570.109,0.0
49147.0,STARLINK-3071,PAYLOAD,2024-06-17 21:59:56,14.983303,0.0002973,69.9999,42.3434,271.3957,88.6862,1.5899e-06,-7.4e-07,0.0,0 STARLINK-3071,1 49147U 21082T   24169.91662903 -.00000074  00000-0  15899-5 0  9995,2 49147  69.9999  42.3434 0002973 271.3957  88.6862 14.98330300152639,6950.192,96.107,574.123,569.991,0.0
49147.0,STARLINK-3071,PAYLOAD,2024-06-18 01:12:12,14.9832901,0.0002978,69.9999,42.0064,269.8579,90.2239,-7.5508e-06,-1.83e-06,0.0,0 STARLINK-3071,1 49147U 21082T   24170.05015031 -.00000183  00000-0 -75508-5 0  9991,2 49147  69.9999  42.0064 0002978 269.8579  90.2239 14.98329010153827,6950.196,96.107,574.131,569.991,0.0
49147.0,STARLINK-3071,PAYLOAD,2024-06-18 22:01:57,14.98332033,0.0003075,69.9998,39.8178,269.3754,90.7053,7.0066e-05,7.43e-06,0.0,0 STARLINK-3071,1 49147U 21082T   24170.91802609  .00000743  00000-0  70066-4 0  9994,2 49147  69.9998  39.8178 0003075 269.3754  90.7053 14.98332033152787,6950.187,96.107,574.189,569.914,0.0
49147.0,STARLINK-3071,PAYLOAD,2024-06-19 01:14:13,14.98332845,0.0003063,69.9999,39.4811,269.4118,90.669,7.7115e-05,8.27e-06,0.0,0 STARLINK-3071,1 49147U 21082T   24171.05154524  .00000827  00000-0  77115-4 0  9991,2 49147  69.9999  39.4811 0003063 269.4118  90.6690 14.98332845153979,6950.184,96.107,574.178,569.92,0.0
49147.0,STARLINK-3071,PAYLOAD,2024-06-19 22:03:58,14.98329687,0.0002987,70.0001,37.2933,268.42,91.6616,-5.7082e-07,-1e-06,0.0,0 STARLINK-3071,1 49147U 21082T   24171.91942915 -.00000100  00000-0 -57082-6 0  9994,2 49147  70.0001  37.2933 0002987 268.4200  91.6616 14.98329687152936,6950.194,96.107,574.135,569.983,0.0
49147.0,STARLINK-3071,PAYLOAD,2024-06-20 01:16:14,14.98330511,0.0002975,70.0001,36.9567,268.3708,91.711,8.0422e-06,3e-08,0.0,0 STARLINK-3071,1 49147U 21082T   24172.05294834  .00000003  00000-0  80422-5 0  9993,2 49147  70.0001  36.9567 0002975 268.3708  91.7110 14.98330511154125,6950.191,96.107,574.124,569.989,0.0
49147.0,STARLINK-3071,PAYLOAD,2024-06-20 14:05:19,14.98330356,0.0002944,70.0001,35.61,268.6147,91.4675,-3.2624e-05,-4.82e-06,0.0,0 STARLINK-3071,1 49147U 21082T   24172.58702968 -.00000482  00000-0 -32624-4 0  9996,2 49147  70.0001  35.6100 0002944 268.6147  91.4675 14.98330356153039,6950.192,96.107,574.103,570.011,0.0
49147.0,STARLINK-3071,PAYLOAD,2024-06-20 22:05:59,14.98329614,0.0002944,70.0001,34.7682,268.8973,91.1849,-3.5944e-05,-5.22e-06,0.0,0 STARLINK-3071,1 49147U 21082T   24172.92083021 -.00000522  00000-0 -35944-4 0  9999,2 49147  70.0001  34.7682 0002944 268.8973  91.1849 14.98329614153083,6950.194,96.107,574.105,570.013,0.0
49147.0,STARLINK-3071,PAYLOAD,2024-06-21 01:18:15,14.98330598,0.0002936,70.0002,34.4316,268.8607,91.2215,-2.341e-05,-3.72e-06,0.0,0 STARLINK-3071,1 49147U 21082T   24173.05434920 -.00000372  00000-0 -23410-4 0  9990,2 49147  70.0002  34.4316 0002936 268.8607  91.2215 14.98330598154273,6950.191,96.107,574.097,570.015,0.0
